{"type": "FeatureCollection", "features": [ {"type": "Feature", "properties": {"norad_id": 66593, "name": "STARLINK-36031", "group": "last-30-days", "lat": -26.16157001932471, "lon": 76.48622629408108, "alt_km": 373.63231761245515, "timestamp": "2025-12-07T07:31:35.086778+00:00", "meta": {"OBJECT_NAME": "STARLINK-36031", "OBJECT_ID": "2025-270F", "EPOCH": "2025-12-06T22:00:01.999584", "MEAN_MOTION": 15.6715629, "ECCENTRICITY": 0.00013028, "INCLINATION": 42.9989, "RA_OF_ASC_NODE": 227.0485, "ARG_OF_PERICENTER": 266.325, "MEAN_ANOMALY": 233.1861, "EPHEMERIS_TYPE": 0, "CLASSIFICATION_TYPE": "U", "NORAD_CAT_ID": 66593, "ELEMENT_SET_NO": 999, "REV_AT_EPOCH": 346, "BSTAR": -0.020756533, "MEAN_MOTION_DOT": -0.02011992, "MEAN_MOTION_DDOT": 0}, "tle": {"line1": "1 66593U 25270F   25340.91668981 -.02011992  00000+0 -20757-1 0  9994", "line2": "2 66593  42.9989 227.0485 0001302 266.3250 233.1861 15.67156290  3469"}}, "geometry": {"type": "Point", "coordinates": [76.48622629408108, -26.16157001932471]}}, {"type": "Feature", "properties": {"norad_id": 66594, "name": "STARLINK-36032", "group": "last-30-days", "lat": -27.262184678037688, "lon": 78.2405743668192, "alt_km": 373.7037279892447, "timestamp": "2025-12-07T07:31:35.086788+00:00", "meta": {"OBJECT_NAME": "STARLINK-36032", "OBJECT_ID": "2025-270G", "EPOCH": "2025-12-06T22:00:01.999584", "MEAN_MOTION": 15.67152844, "ECCENTRICITY": 0.00012289, "INCLINATION": 42.9991, "RA_OF_ASC_NODE": 227.044, "ARG_OF_PERICENTER": 265.9737, "MEAN_ANOMALY": 235.4566, "EPHEMERIS_TYPE": 0, "CLASSIFICATION_TYPE": "U", "NORAD_CAT_ID": 66594, "ELEMENT_SET_NO": 999, "REV_AT_EPOCH": 320, "BSTAR": -0.020681878, "MEAN_MOTION_DOT": -0.02005328, "MEAN_MOTION_DDOT": 0}, "tle": {"line1": "1 66594U 25270G   25340.91668981 -.02005328  00000+0 -20682-1 0  9998", "line2": "2 66594  42.9991 227.0440 0001228 265.9737 235.4566 15.67152844  3206"}}, "geometry": {"type": "Point", "coordinates": [78.2405743668192, -27.262184678037688]}}, {"type": "Feature", "properties": {"norad_id": 66595, "name": "STARLINK-35711", "group": "last-30-days", "lat": -28.33745186328895, "lon": 80.0242904618417, "alt_km": 373.7513259333082, "timestamp": "2025-12-07T07:31:35.086798+00:00", "meta": {"OBJECT_NAME": "STARLINK-35711", "OBJECT_ID": "2025-270H", "EPOCH": "2025-12-06T22:00:01.999584", "MEAN_MOTION": 15.67155256, "ECCENTRICITY": 0.00012804, "INCLINATION": 42.9989, "RA_OF_ASC_NODE": 227.0385, "ARG_OF_PERICENTER": 266.8928, "MEAN_ANOMALY": 236.454, "EPHEMERIS_TYPE": 0, "CLASSIFICATION_TYPE": "U", "NORAD_CAT_ID": 66595, "ELEMENT_SET_NO": 999, "REV_AT_EPOCH": 357, "BSTAR": -0.020752659, "MEAN_MOTION_DOT": -0.02011569, "MEAN_MOTION_DDOT": 0}, "tle": {"line1": "1 66595U 25270H   25340.91668981 -.02011569  00000+0 -20753-1 0  9992", "line2": "2 66595  42.9989 227.0385 0001280 266.8928 236.4540 15.67155256  3575"}}, "geometry": {"type": "Point", "coordinates": [80.0242904618417, -28.33745186328895]}}, {"type": "Feature", "properties": {"norad_id": 66596, "name": "STARLINK-35811", "group": "last-30-days", "lat": -29.391114880257184, "lon": 81.84907180036356, "alt_km": 373.81149827049103, "timestamp": "2025-12-07T07:31:35.086809+00:00", "meta": {"OBJECT_NAME": "STARLINK-35811", "OBJECT_ID": "2025-270J", "EPOCH": "2025-12-06T22:00:01.999584", "MEAN_MOTION": 15.67153723, "ECCENTRICITY": 0.00012294, "INCLINATION": 42.9988, "RA_OF_ASC_NODE": 227.0341, "ARG_OF_PERICENTER": 266.9444, "MEAN_ANOMALY": 238.3193, "EPHEMERIS_TYPE": 0, "CLASSIFICATION_TYPE": "U", "NORAD_CAT_ID": 66596, "ELEMENT_SET_NO": 999, "REV_AT_EPOCH": 357, "BSTAR": -0.020691234, "MEAN_MOTION_DOT": -0.02006189, "MEAN_MOTION_DDOT": 0}, "tle": {"line1": "1 66596U 25270J   25340.91668981 -.02006189  00000+0 -20691-1 0  9996", "line2": "2 66596  42.9988 227.0341 0001229 266.9444 238.3193 15.67153723  3576"}}, "geometry": {"type": "Point", "coordinates": [81.84907180036356, -29.391114880257184]}}, {"type": "Feature", "properties": {"norad_id": 66597, "name": "STARLINK-35820", "group": "last-30-days", "lat": -30.418254101665884, "lon": 83.70906830256317, "alt_km": 373.81098328018015, "timestamp": "2025-12-07T07:31:35.086818+00:00", "meta": {"OBJECT_NAME": "STARLINK-35820", "OBJECT_ID": "2025-270K", "EPOCH": "2025-12-06T22:00:01.999584", "MEAN_MOTION": 15.67151848, "ECCENTRICITY": 0.00012718, "INCLINATION": 42.9987, "RA_OF_ASC_NODE": 227.029, "ARG_OF_PERICENTER": 265.3268, "MEAN_ANOMALY": 241.8555, "EPHEMERIS_TYPE": 0, "CLASSIFICATION_TYPE": "U", "NORAD_CAT_ID": 66597, "ELEMENT_SET_NO": 999, "REV_AT_EPOCH": 357, "BSTAR": -0.020676261, "MEAN_MOTION_DOT": -0.02004811, "MEAN_MOTION_DDOT": 0}, "tle": {"line1": "1 66597U 25270K   25340.91668981 -.02004811  00000+0 -20676-1 0  9990", "line2": "2 66597  42.9987 227.0290 0001271 265.3268 241.8555 15.67151848  3570"}}, "geometry": {"type": "Point", "coordinates": [83.70906830256317, -30.418254101665884]}}, {"type": "Feature", "properties": {"norad_id": 66598, "name": "STARLINK-35981", "group": "last-30-days", "lat": -31.417768368269222, "lon": 85.60678623771959, "alt_km": 373.8265516865631, "timestamp": "2025-12-07T07:31:35.086828+00:00", "meta": {"OBJECT_NAME": "STARLINK-35981", "OBJECT_ID": "2025-270L", "EPOCH": "2025-12-06T22:00:01.999584", "MEAN_MOTION": 15.67154713, "ECCENTRICITY": 0.00012783, "INCLINATION": 42.9988, "RA_OF_ASC_NODE": 227.0239, "ARG_OF_PERICENTER": 263.496, "MEAN_ANOMALY": 245.6008, "EPHEMERIS_TYPE": 0, "CLASSIFICATION_TYPE": "U", "NORAD_CAT_ID": 66598, "ELEMENT_SET_NO": 999, "REV_AT_EPOCH": 330, "BSTAR": -0.020729732, "MEAN_MOTION_DOT": -0.02009577, "MEAN_MOTION_DDOT": 0}, "tle": {"line1": "1 66598U 25270L   25340.91668981 -.02009577  00000+0 -20730-1 0  9996", "line2": "2 66598  42.9988 227.0239 0001278 263.4960 245.6008 15.67154713  3300"}}, "geometry": {"type": "Point", "coordinates": [85.60678623771959, -31.417768368269222]}}, {"type": "Feature", "properties": {"norad_id": 66599, "name": "STARLINK-35930", "group": "last-30-days", "lat": -32.389420225366926, "lon": 87.54790690024605, "alt_km": 373.8800463425132, "timestamp": "2025-12-07T07:31:35.086840+00:00", "meta": {"OBJECT_NAME": "STARLINK-35930", "OBJECT_ID": "2025-270M", "EPOCH": "2025-12-06T22:00:01.999584", "MEAN_MOTION": 15.67153534, "ECCENTRICITY": 0.00012839, "INCLINATION": 42.9988, "RA_OF_ASC_NODE": 227.0199, "ARG_OF_PERICENTER": 265.439, "MEAN_ANOMALY": 245.5752, "EPHEMERIS_TYPE": 0, "CLASSIFICATION_TYPE": "U", "NORAD_CAT_ID": 66599, "ELEMENT_SET_NO": 999, "REV_AT_EPOCH": 346, "BSTAR": -0.02068665, "MEAN_MOTION_DOT": -0.02005827, "MEAN_MOTION_DDOT": 0}, "tle": {"line1": "1 66599U 25270M   25340.91668981 -.02005827  00000+0 -20687-1 0  9992", "line2": "2 66599  42.9988 227.0199 0001283 265.4390 245.5752 15.67153534  3463"}}, "geometry": {"type": "Point", "coordinates": [87.54790690024605, -32.389420225366926]}}, {"type": "Feature", "properties": {"norad_id": 66600, "name": "STARLINK-35980", "group": "last-30-days", "lat": -33.330738849968405, "lon": 89.5305407789105, "alt_km": 373.9213270591954, "timestamp": "2025-12-07T07:31:35.086850+00:00", "meta": {"OBJECT_NAME": "STARLINK-35980", "OBJECT_ID": "2025-270N", "EPOCH": "2025-12-06T22:00:01.999584", "MEAN_MOTION": 15.6715088, "ECCENTRICITY": 0.00012309, "INCLINATION": 42.9986, "RA_OF_ASC_NODE": 227.015, "ARG_OF_PERICENTER": 263.6877, "MEAN_ANOMALY": 249.2451, "EPHEMERIS_TYPE": 0, "CLASSIFICATION_TYPE": "U", "NORAD_CAT_ID": 66600, "ELEMENT_SET_NO": 999, "REV_AT_EPOCH": 336, "BSTAR": -0.020646369, "MEAN_MOTION_DOT": -0.02002163, "MEAN_MOTION_DDOT": 0}, "tle": {"line1": "1 66600U 25270N   25340.91668981 -.02002163  00000+0 -20646-1 0  9990", "line2": "2 66600  42.9986 227.0150 0001230 263.6877 249.2451 15.67150880  3360"}}, "geometry": {"type": "Point", "coordinates": [89.5305407789105, -33.330738849968405]}}, {"type": "Feature", "properties": {"norad_id": 66601, "name": "STARLINK-35978", "group": "last-30-days", "lat": -34.238961935622996, "lon": 91.55347164531952, "alt_km": 373.9254123641458, "timestamp": "2025-12-07T07:31:35.086861+00:00", "meta": {"OBJECT_NAME": "STARLINK-35978", "OBJECT_ID": "2025-270P", "EPOCH": "2025-12-06T22:00:01.999584", "MEAN_MOTION": 15.67149891, "ECCENTRICITY": 0.00012848, "INCLINATION": 42.9987, "RA_OF_ASC_NODE": 227.0101, "ARG_OF_PERICENTER": 263.8792, "MEAN_ANOMALY": 250.971, "EPHEMERIS_TYPE": 0, "CLASSIFICATION_TYPE": "U", "NORAD_CAT_ID": 66601, "ELEMENT_SET_NO": 999, "REV_AT_EPOCH": 330, "BSTAR": -0.020633463, "MEAN_MOTION_DOT": -0.02001033, "MEAN_MOTION_DDOT": 0}, "tle": {"line1": "1 66601U 25270P   25340.91668981 -.02001033  00000+0 -20633-1 0  9992", "line2": "2 66601  42.9987 227.0101 0001284 263.8792 250.9710 15.67149891  3306"}}, "geometry": {"type": "Point", "coordinates": [91.55347164531952, -34.238961935622996]}}, {"type": "Feature", "properties": {"norad_id": 66602, "name": "STARLINK-36050", "group": "last-30-days", "lat": -35.11361870164385, "lon": 93.62098315795724, "alt_km": 373.9255606440811, "timestamp": "2025-12-07T07:31:35.086873+00:00", "meta": {"OBJECT_NAME": "STARLINK-36050", "OBJECT_ID": "2025-270Q", "EPOCH": "2025-12-06T22:00:01.999584", "MEAN_MOTION": 15.67150368, "ECCENTRICITY": 0.00013033, "INCLINATION": 42.9988, "RA_OF_ASC_NODE": 227.0051, "ARG_OF_PERICENTER": 261.6827, "MEAN_ANOMALY": 255.0849, "EPHEMERIS_TYPE": 0, "CLASSIFICATION_TYPE": "U", "NORAD_CAT_ID": 66602, "ELEMENT_SET_NO": 999, "REV_AT_EPOCH": 336, "BSTAR": -0.020652472, "MEAN_MOTION_DOT": -0.02002701, "MEAN_MOTION_DDOT": 0}, "tle": {"line1": "1 66602U 25270Q   25340.91668981 -.02002701  00000+0 -20652-1 0  9997", "line2": "2 66602  42.9988 227.0051 0001303 261.6827 255.0849 15.67150368  3365"}}, "geometry": {"type": "Point", "coordinates": [93.62098315795724, -35.11361870164385]}}]}